#aV2008  9 20  0  0   .00000000      96 DD+AD WGS84 FIT  NGA
## 1497 518400.00000000   900.00000000 54729  .0000000000000
+   31     2  3  4  5  6  7  8  9 10 11 12 13 14 15 16 17 18
+         19 20 21 22 23 24 25 26 27 28 29 30 31 32  0  0  0
+          0  0  0  0  0  0  0  0  0  0  0  0  0  0  0  0  0
+          0  0  0  0  0  0  0  0  0  0  0  0  0  0  0  0  0
+          0  0  0  0  0  0  0  0  0  0  0  0  0  0  0  0  0
++         0  0  0  0  0  0  0  0  0  0  0  0  0  0  0  0  0
++         0  0  0  0  0  0  0  0  0  0  0  0  0  0  0  0  0
++         0  0  0  0  0  0  0  0  0  0  0  0  0  0  0  0  0
++         0  0  0  0  0  0  0  0  0  0  0  0  0  0  0  0  0
++         0  0  0  0  0  0  0  0  0  0  0  0  0  0  0  0  0
%c cc cc ccc ccc cccc cccc cccc cccc ccccc ccccc ccccc ccccc
%c cc cc ccc ccc cccc cccc cccc cccc ccccc ccccc ccccc ccccc
%f  0.0000000  0.000000000  0.00000000000  0.000000000000000
%f  0.0000000  0.000000000  0.00000000000  0.000000000000000
%i    0    0    0    0      0      0      0      0         0
%i    0    0    0    0      0      0      0      0         0
/*      NGA, ST. LOUIS,MO.                                  
/*   EPHEMERIS COMPUTED FROM  3 DAYS OF DATA                
/* CCCCCCCCCCCCCCCCCCCCCCCCCCCCCCCCCCCCCCCCCCCCCCCCCCCCCCCCC
/* CCCCCCCCCCCCCCCCCCCCCCCCCCCCCCCCCCCCCCCCCCCCCCCCCCCCCCCCC
*  2008  9 20 15 45   .00000000                                                 
P  2 -16510.599408  13547.587081  15415.013804    185.986590                    
V  2 -20191.682907     99.087195 -21889.698528      -.028081                    
P  3  10512.039733 -23736.426886   4347.997153    286.009290                    
V  3   2283.540107   6892.617700  30533.117409       .050398                    
P  4 -25559.987229   6365.584923   4597.943388   -176.893688                    
V  4  -6238.673796  -2326.394162 -30377.751826      -.111063                    
P  5  14572.263683  21699.237497  -5388.986490   -102.374129                    
V  5  -6666.235189  -2666.475089 -30287.609169     -1.041998                    
P  6  14361.902308 -20780.311379   8399.293467    165.493166                    
V  6   -520.272673  10958.763759  28646.978504      -.020825                    
P  7 -20152.062358  -8166.385792  15291.479500     18.301186                    
V  7  19034.969865  -4296.344741  22651.471629       .022300                    
P  8 -26517.960254   -756.067935   3928.371080   -170.880874                    
V  8   4880.414373  -1956.325799  31449.954619      -.016492                    
P  9   4267.258892  14721.327528 -22342.022362     15.881040                    
V  9 -26426.932553   4374.616375  -2108.263789       .019079                    
P 10  -5700.659371  16106.420604  20110.801147     -5.099802                    
V 10 -16131.589518 -20340.292759  11957.839806      -.004199                    
P 11  -7636.855455 -15077.608808 -20677.428467     19.490881                    
V 11  24747.674097  -8580.069986  -2559.975137      -.007499                    
P 12   9036.740674  23078.544920  -9608.939004   -350.146831                    
V 12  -9274.072825  -8377.302689 -28527.972235       .016331                    
P 13  -9594.456314 -12142.613303  21468.778672    271.720639                    
V 13  12322.902356 -24527.150853  -8316.066256       .011873                    
P 14  17066.646346  -7763.263184 -18655.130488   -217.405615                    
V 14  -8970.119184  22170.137704 -17440.878838       .047171                    
P 15  -5885.472882  25233.687873  -5771.897235   -180.596992                    
V 15  -5405.199496   5758.175832  30554.390525      -.064691                    
P 16  10435.046014 -11199.922429  21747.827774    105.916907                    
V 16  16471.747682  21994.910689   3638.406295      -.020618                    
P 17 -17366.277185   6947.700171 -18744.604335     39.024368                    
V 17   8193.448014 -22565.769297 -16087.149256       .001815                    
P 18  19310.693931  15989.313621  -9109.744718   -131.870915                    
V 18   4536.014839  11194.145270  28254.754043       .040593                    
P 19   6723.542289 -24516.408884  -7238.895455     35.512827                    
V 19   6845.469130  -7009.669536  29995.442252       .001715                    
P 20 -12087.884747 -22817.184271  -6417.137834    104.109436                    
V 20   7405.718727   4364.468277 -29961.473530      -.010734                    
P 21  23909.719253   5716.910292  11017.132763     49.870965                    
V 21 -13181.110072   3949.092701  26461.980018      -.014915                    
P 22  18733.245675   3653.621971 -18333.106313    210.839329                    
V 22  12065.889773  20413.606420  16189.381889      -.002631                    
P 23  -3197.814673 -20658.135202  16165.879199    373.867939                    
V 23   9832.218532 -18329.032848 -21663.580324       .014229                    
P 24  11107.883605  13504.228055  20073.533132    126.803101                    
V 24 -25083.584480   3148.329382  12127.352713       .030556                    
P 25 -13784.046490 -11132.098122  20087.238107   -146.878461                    
V 25  23929.918578  -6481.929410  13234.164356       .439960                    
P 26 -10004.817607  24221.850750  -2243.530322    328.327534                    
V 26  -2953.189699   1103.903433  32662.636297       .054371                    
P 27 -22235.176581  -5684.367443  14147.058266    219.049618                    
V 27  16173.434977  -4706.632712  24611.991937       .028497                    
P 28 -18966.456326  -5713.462124 -17461.353119    -22.614375                    
V 28 -12024.096904 -19452.648746  18674.270919      -.003092                    
P 29   8525.933859  15327.452874  20064.522852    -37.039581                    
V 29 -11290.408636  22587.149314 -12493.342939       .010158                    
P 30  18492.031389  18791.011575   3247.021271     97.655002                    
V 30    499.731290   5488.352056 -31084.312641       .020763                    
P 31  23882.034360  -8689.852447   8103.002035    -27.577437                    
V 31  10179.276477    951.031226 -29627.701552      -.023843                    
P 32  -5144.085230 -23186.503654 -11652.093030    316.419459                    
V 32  10069.007830  11840.849321 -26825.628797       .003293                    
EOF
